{
    "CCSDS_OMM_VERS": "3.0",
    "COMMENT": "GENERATED VIA SPACE-TRACK.ORG API",
    "CREATION_DATE": "2025-05-22T17:14:14",
    "ORIGINATOR": "18 SPCS",
    "OBJECT_NAME": "BEIDOU 3M9",
    "OBJECT_ID": "2018-062A",
    "CENTER_NAME": "EARTH",
    "REF_FRAME": "TEME",
    "TIME_SYSTEM": "UTC",
    "MEAN_ELEMENT_THEORY": "SGP4",
    "EPOCH": "2025-05-22T04:52:44.408064",
    "MEAN_MOTION": "1.86228530",
    "ECCENTRICITY": "0.00048590",
    "INCLINATION": "54.1000",
    "RA_OF_ASC_NODE": "195.5976",
    "ARG_OF_PERICENTER": "278.8451",
    "MEAN_ANOMALY": "81.1807",
    "EPHEMERIS_TYPE": "0",
    "CLASSIFICATION_TYPE": "U",
    "NORAD_CAT_ID": "43581",
    "ELEMENT_SET_NO": "999",
    "REV_AT_EPOCH": "4635",
    "BSTAR": "0.00000000000000",
    "MEAN_MOTION_DOT": "0.00000073",
    "MEAN_MOTION_DDOT": "0.0000000000000",
    "SEMIMAJOR_AXIS": "27906.435",
    "PERIOD": "773.243",
    "APOAPSIS": "21541.860",
    "PERIAPSIS": "21514.741",
    "OBJECT_TYPE": "PAYLOAD",
    "RCS_SIZE": "LARGE",
    "COUNTRY_CODE": "PRC",
    "LAUNCH_DATE": "2018-07-29",
    "SITE": "XSC",
    "DECAY_DATE": null,
    "FILE": "4736220",
    "GP_ID": "288145053",
    "TLE_LINE0": "0 BEIDOU 3M9",
    "TLE_LINE1": "1 43581U 18062A   25142.20329176  .00000073  00000-0  00000-0 0  9992",
    "TLE_LINE2": "2 43581  54.1000 195.5976 0004859 278.8451  81.1807  1.86228530 46354"
}